{
  "type": "FeatureCollection",
  "features": [
    {
      "type": "Feature",
      "properties": {
        "norad_id": 61182,
        "name": "GSAT0232 (GALILEO 32)",
        "group": "gnss",
        "lat": -27.230660755921146,
        "lon": 67.46051308817995,
        "alt_km": 23219.739800510666,
        "timestamp": "2025-12-08T23:34:04.213021+00:00",
        "meta_object_name": "GSAT0232 (GALILEO 32)",
        "meta_object_id": "2024-167A",
        "meta_epoch": "2025-12-08T07:56:10.650912",
        "meta_mean_motion": 1.70473284,
        "meta_eccentricity": 0.0002045,
        "meta_inclination": 55.2425,
        "meta_ra_of_asc_node": 226.5518,
        "meta_arg_of_pericenter": 212.3949,
        "meta_mean_anomaly": 321.7655,
        "meta_ephemeris_type": 0,
        "meta_classification_type": "U",
        "meta_norad_cat_id": 61182,
        "meta_element_set_no": 999,
        "meta_rev_at_epoch": 762,
        "meta_bstar": 0,
        "meta_mean_motion_dot": 1.8e-07,
        "meta_mean_motion_ddot": 0,
        "tle_line1": "1 61182U 24167A   25342.33067883  .00000018  00000+0  00000+0 0  9999",
        "tle_line2": "2 61182  55.2425 226.5518 0002045 212.3949 321.7655  1.70473284  7623"
      },
      "geometry": {
        "type": "Point",
        "coordinates": [
          67.46051308817995,
          -27.230660755921146
        ]
      }
    },
    {
      "type": "Feature",
      "properties": {
        "norad_id": 61183,
        "name": "GSAT0226 (GALILEO 31)",
        "group": "gnss",
        "lat": -27.002105643317165,
        "lon": -154.1550905592314,
        "alt_km": 23227.971172364047,
        "timestamp": "2025-12-08T23:34:04.213035+00:00",
        "meta_object_name": "GSAT0226 (GALILEO 31)",
        "meta_object_id": "2024-167B",
        "meta_epoch": "2025-12-06T09:26:36.340224",
        "meta_mean_motion": 1.70473292,
        "meta_eccentricity": 7.913e-05,
        "meta_inclination": 55.2417,
        "meta_ra_of_asc_node": 226.6105,
        "meta_arg_of_pericenter": 126.2936,
        "meta_mean_anomaly": 51.6212,
        "meta_ephemeris_type": 0,
        "meta_classification_type": "U",
        "meta_norad_cat_id": 61183,
        "meta_element_set_no": 999,
        "meta_rev_at_epoch": 756,
        "meta_bstar": 0,
        "meta_mean_motion_dot": 3.3e-07,
        "meta_mean_motion_ddot": 0,
        "tle_line1": "1 61183U 24167B   25340.39347616  .00000033  00000+0  00000+0 0  9996",
        "tle_line2": "2 61183  55.2417 226.6105 0000791 126.2936  51.6212  1.70473292  7563"
      },
      "geometry": {
        "type": "Point",
        "coordinates": [
          -154.1550905592314,
          -27.002105643317165
        ]
      }
    },
    {
      "type": "Feature",
      "properties": {
        "norad_id": 61186,
        "name": "BEIDOU-3 M25 (C47)",
        "group": "gnss",
        "lat": 54.274241564998945,
        "lon": 48.30196285236205,
        "alt_km": 21536.10586985228,
        "timestamp": "2025-12-08T23:34:04.213046+00:00",
        "meta_object_name": "BEIDOU-3 M25 (C47)",
        "meta_object_id": "2024-168B",
        "meta_epoch": "2025-12-08T12:05:45.909312",
        "meta_mean_motion": 1.86229865,
        "meta_eccentricity": 0.00054392,
        "meta_inclination": 54.6457,
        "meta_ra_of_asc_node": 308.8661,
        "meta_arg_of_pericenter": 295.7763,
        "meta_mean_anomaly": 199.2113,
        "meta_ephemeris_type": 0,
        "meta_classification_type": "U",
        "meta_norad_cat_id": 61186,
        "meta_element_set_no": 999,
        "meta_rev_at_epoch": 823,
        "meta_bstar": 0,
        "meta_mean_motion_dot": -7.4e-07,
        "meta_mean_motion_ddot": 0,
        "tle_line1": "1 61186U 24168B   25342.50400358 -.00000074  00000+0  00000+0 0  9994",
        "tle_line2": "2 61186  54.6457 308.8661 0005439 295.7763 199.2113  1.86229865  8233"
      },
      "geometry": {
        "type": "Point",
        "coordinates": [
          48.30196285236205,
          54.274241564998945
        ]
      }
    },
    {
      "type": "Feature",
      "properties": {
        "norad_id": 61187,
        "name": "BEIDOU-3 M27 (C49)",
        "group": "gnss",
        "lat": -38.94553712682274,
        "lon": 163.80683456459838,
        "alt_km": 21534.263247176754,
        "timestamp": "2025-12-08T23:34:04.213057+00:00",
        "meta_object_name": "BEIDOU-3 M27 (C49)",
        "meta_object_id": "2024-168C",
        "meta_epoch": "2025-12-08T08:37:14.421216",
        "meta_mean_motion": 1.86229996,
        "meta_eccentricity": 0.00023093,
        "meta_inclination": 54.6413,
        "meta_ra_of_asc_node": 308.8548,
        "meta_arg_of_pericenter": 333.5406,
        "meta_mean_anomaly": 199.3005,
        "meta_ephemeris_type": 0,
        "meta_classification_type": "U",
        "meta_norad_cat_id": 61187,
        "meta_element_set_no": 999,
        "meta_rev_at_epoch": 570,
        "meta_bstar": 0,
        "meta_mean_motion_dot": -7.3e-07,
        "meta_mean_motion_ddot": 0,
        "tle_line1": "1 61187U 24168C   25342.35919469 -.00000073  00000+0  00000+0 0  9995",
        "tle_line2": "2 61187  54.6413 308.8548 0002309 333.5406 199.3005  1.86229996  5703"
      },
      "geometry": {
        "type": "Point",
        "coordinates": [
          163.80683456459838,
          -38.94553712682274
        ]
      }
    },
    {
      "type": "Feature",
      "properties": {
        "norad_id": 62339,
        "name": "GPS BIII-7  (PRN 01)",
        "group": "gnss",
        "lat": 49.063148395990936,
        "lon": 35.98575141829014,
        "alt_km": 20172.503555082283,
        "timestamp": "2025-12-08T23:34:04.213068+00:00",
        "meta_object_name": "GPS BIII-7  (PRN 01)",
        "meta_object_id": "2024-242A",
        "meta_epoch": "2025-12-07T21:14:38.700960",
        "meta_mean_motion": 2.00567469,
        "meta_eccentricity": 0.00119344,
        "meta_inclination": 54.9247,
        "meta_ra_of_asc_node": 341.9365,
        "meta_arg_of_pericenter": 343.8064,
        "meta_mean_anomaly": 11.4848,
        "meta_ephemeris_type": 0,
        "meta_classification_type": "U",
        "meta_norad_cat_id": 62339,
        "meta_element_set_no": 999,
        "meta_rev_at_epoch": 741,
        "meta_bstar": 0,
        "meta_mean_motion_dot": -8.7e-07,
        "meta_mean_motion_ddot": 0,
        "tle_line1": "1 62339U 24242A   25341.88517015 -.00000087  00000+0  00000+0 0  9991",
        "tle_line2": "2 62339  54.9247 341.9365 0011934 343.8064  11.4848  2.00567469  7410"
      },
      "geometry": {
        "type": "Point",
        "coordinates": [
          35.98575141829014,
          49.063148395990936
        ]
      }
    },
    {
      "type": "Feature",
      "properties": {
        "norad_id": 62850,
        "name": "NVS-02 (IRNSS-1K)",
        "group": "gnss",
        "lat": 0.573764984188644,
        "lon": 147.52042421520332,
        "alt_km": 28039.130020095396,
        "timestamp": "2025-12-08T23:34:04.213080+00:00",
        "meta_object_name": "NVS-02 (IRNSS-1K)",
        "meta_object_id": "2025-020A",
        "meta_epoch": "2025-12-08T09:53:41.443872",
        "meta_mean_motion": 2.17590053,
        "meta_eccentricity": 0.73476867,
        "meta_inclination": 20.9953,
        "meta_ra_of_asc_node": 329.2268,
        "meta_arg_of_pericenter": 23.4238,
        "meta_mean_anomaly": 357.5344,
        "meta_ephemeris_type": 0,
        "meta_classification_type": "U",
        "meta_norad_cat_id": 62850,
        "meta_element_set_no": 999,
        "meta_rev_at_epoch": 682,
        "meta_bstar": 0.00032971935,
        "meta_mean_motion_dot": 2e-06,
        "meta_mean_motion_ddot": 0,
        "tle_line1": "1 62850U 25020A   25342.41228523  .00000200  00000+0  32972-3 0  9990",
        "tle_line2": "2 62850  20.9953 329.2268 7347686  23.4238 357.5344  2.17590053  6825"
      },
      "geometry": {
        "type": "Point",
        "coordinates": [
          147.52042421520332,
          0.573764984188644
        ]
      }
    },
    {
      "type": "Feature",
      "properties": {
        "norad_id": 63130,
        "name": "COSMOS 2584 (704K)",
        "group": "gnss",
        "lat": -64.22305340633424,
        "lon": 4.300071429540507,
        "alt_km": 19126.866577352215,
        "timestamp": "2025-12-08T23:34:04.213094+00:00",
        "meta_object_name": "COSMOS 2584 (704K)",
        "meta_object_id": "2025-042A",
        "meta_epoch": "2025-12-08T03:39:29.178720",
        "meta_mean_motion": 2.13102925,
        "meta_eccentricity": 0.0007602,
        "meta_inclination": 64.9737,
        "meta_ra_of_asc_node": 79.3022,
        "meta_arg_of_pericenter": 215.9611,
        "meta_mean_anomaly": 144.0025,
        "meta_ephemeris_type": 0,
        "meta_classification_type": "U",
        "meta_norad_cat_id": 63130,
        "meta_element_set_no": 999,
        "meta_rev_at_epoch": 597,
        "meta_bstar": 0,
        "meta_mean_motion_dot": -1.2e-07,
        "meta_mean_motion_ddot": 0,
        "tle_line1": "1 63130U 25042A   25342.15242105 -.00000012  00000+0  00000+0 0  9994",
        "tle_line2": "2 63130  64.9737  79.3022 0007602 215.9611 144.0025  2.13102925  5976"
      },
      "geometry": {
        "type": "Point",
        "coordinates": [
          4.300071429540507,
          -64.22305340633424
        ]
      }
    }
  ]
}